0 PROBA 1
1 26958U 01049B   26161.56530697  .00002726  00000-0  17812-3 0  9990
2 26958  97.9603 169.8662 0055682 144.1033 216.3955 15.07469400342620
0 CUTE-1
1 27844U 03031E   26161.29335645  .00000255  00000-0  12935-3 0  9990
2 27844  98.6735 169.9388 0009062 198.4654 161.6197 14.24331486190695
0 CUBESAT XI 4
1 27848U 03031J   26161.55949117  .00000214  00000-0  11309-3 0  9997
2 27848  98.6767 169.9197 0008637 217.5980 142.4596 14.23617305190432
0 APRIZESAT 4
1 35684U 09041D   26161.44643908  .00000584  00000-0  76372-4 0  9990
2 35684  98.1412 236.6325 0042866 345.2668  14.7293 14.83870372910368
0 APRIZESAT 3
1 35686U 09041F   26161.34454705  .00001165  00000-0  10508-3 0  9990
2 35686  98.2053 314.2413 0062771  89.7329 271.1083 14.96220597915356
0 PROBA 2
1 36037U 09059B   26161.50046434  .00000168  00000-0  49671-4 0  9990
2 36037  98.2450 344.9461 0012163 304.8892  55.1161 14.54859541880558
0 APRIZESAT 5
1 37792U 11044E   26161.31888030  .00000994  00000-0  13263-3 0  9995
2 37792  98.2454  94.1647 0052882  26.2317 334.1555 14.81060837797770
0 APRIZESAT 6
1 37793U 11044F   26161.58639097  .00000630  00000-0  96098-4 0  9997
2 37793  98.2371  71.9511 0044412 106.5122  14.7860 14.76905986796178
0 PROBA V
1 39159U 13021A   26161.51238492  .00000067  00000-0  47550-4 0  9992
2 39159  98.3581 140.4487 0004864 139.3348 220.8195 14.23595585680169
0 APRIZESAT 7
1 39416U 13066A   26161.57956392  .00000796  00000-0  84322-4 0  9996
2 39416  97.7706 114.8946 0034535 231.7576 128.0533 14.91550159680247
0 APRIZESAT 8
1 39425U 13066K   26161.07899970  .00000941  00000-0  10783-3 0  9990
2 39425  97.8219 108.6462 0044754 310.6608  49.0722 14.87638823678618
0 BUGSAT 1
1 40014U 14033E   26161.56586074  .00005083  00000-0  26978-3 0  9998
2 40014  98.0422 253.7280 0027553 200.7327 159.2789 15.15514147654837
0 SAUDISAT 4
1 40016U 14033G   26161.28824431  .00000641  00000-0  90933-4 0  9999
2 40016  97.7575 307.6620 0046239  95.7410 264.9076 14.79535246645057
0 APRIZESAT 9
1 40018U 14033J   26161.62377740  .00000572  00000-0  91506-4 0  9995
2 40018  97.9052 294.9831 0065244 220.4748 139.1599 14.74205655642593
0 APRIZESAT 10
1 40019U 14033K   26161.32391240  .00000360  00000-0  64658-4 0  9997
2 40019  97.9641 288.4368 0077550 296.1424  63.1820 14.70876511641240
0 TDS 1
1 40076U 14037H   26161.54610950  .00006482  00000-0  36941-3 0  9994
2 40076  98.3808 153.1009 0004617 296.8413  63.2343 15.13193993647221
0 TECHNOSAT
1 42829U 17042E   26161.33432075  .00003016  00000-0  21642-3 0  9990
2 42829  97.4262 319.2540 0018783 115.9185 244.3980 15.04911814485672
0 FLYING LAPTOP
1 42831U 17042G   26161.58632163  .00003510  00000-0  27764-3 0  9990
2 42831  97.4659 317.3750 0019266 143.2925 216.9624 15.01103306485463
0 HAWK-A
1 43765U 18099H   26161.58794780  .00005476  00000-0  22184-3 0  9998
2 43765  97.3922 213.9099 0033384 310.2958  49.5363 15.24564815412098
0 HAWK-B
1 43794U 18099AN  26161.60163594  .00005193  00000-0  22266-3 0  9993
2 43794  97.3970 213.3520 0030964 329.0837  30.8575 15.22753141412033
0 HAWK-C
1 43799U 18099AT  26161.12098613  .00006835  00000-0  24740-3 0  9997
2 43799  97.3897 214.3269 0039083 311.9023  47.8885 15.28004790412830
0 SALSAT
1 46495U 20068K   26161.53894844  .00006924  00000-0  24329-3 0  9999
2 46495  97.8853 164.1992 0008621 335.4923  24.5905 15.29703223314342
0 HAWK-2C
1 47502U 21006CT  26161.63178178  .00005710  00000-0  17268-3 0  9994
2 47502  97.2285 206.0726 0005934 210.0862 150.0041 15.34583671298492
0 HAWK-2A
1 47505U 21006CW  26161.63433856  .00005687  00000-0  17193-3 0  9994
2 47505  97.2327 206.7490 0005374 213.7315 146.3588 15.34598614298495
0 HAWK-2B
1 47508U 21006CZ  26161.63022821  .00006317  00000-0  19020-3 0  9995
2 47508  97.2198 205.0872 0005922 211.8163 148.2724 15.34676377298495
0 HAWK-3B
1 48931U 21059BE  26161.50140764  .00041446  00000-0  35970-3 0  9991
2 48931  97.6675 357.5807 0003692   3.1464 356.9820 15.69002522276808
0 HAWK-3C
1 48948U 21059BX  26161.50109144  .00042392  00000-0  36782-3 0  9999
2 48948  97.6795   3.2546 0004111   3.5921 356.5369 15.69001636276802
0 HAWK-3A
1 48957U 21059CG  26161.50099048  .00043077  00000-0  37364-3 0  9998
2 48957  97.6736   0.4648 0004168   5.1300 355.0003 15.69006053276807
0 HAWK-5C
1 52754U 22057Y   26160.69046710  .00017632  00000-0  30370-3 0  9992
2 52754  97.6588 319.8768 0005377 104.7995 255.3852 15.51125293225189
0 HAWK-5B
1 52756U 22057AA  26160.94836375  .00018213  00000-0  31346-3 0  9996
2 52756  97.6594 318.4998 0006000  97.0812 263.1122 15.51136769225226
